HAWK-7B                 
1 56193U 23054R   26195.75496803  .00003137  00000+0  11883-3 0  9990
2 56193  97.2692  80.6653 0001361  18.0785 342.0503 15.27627982181230
HAWK-7C                 
1 56200U 23054Y   26195.68934230  .00003034  00000+0  11500-3 0  9994
2 56200  97.2667  81.3617 0000982 357.5569   2.5666 15.27630255181222
HAWK-8A                 
1 59443U 24066B   26194.96552777  .00000579  00000+0  65389-4 0  9998
2 59443  45.5951 138.1753 0002911 214.4768 145.5925 14.99284113123851
HAWK-8B                 
1 59445U 24066D   26194.89936811  .00000303  00000+0  43098-4 0  9995
2 59445  45.6177 140.4950 0003045 217.9498 142.1170 14.99279756123836
HAWK-9A                 
1 59446U 24066E   26195.18867383  .00000687  00000+0  74272-4 0  9999
2 59446  45.6093 137.6636 0002694 201.6392 158.4376 14.99213697123880
HAWK-9C                 
1 59448U 24066G   26195.52211671  .00000731  00000+0  77805-4 0  9997
2 59448  45.6064 135.0375 0002644 187.8710 172.2130 14.99213514123932
HAWK-8C                 
1 59449U 24066H   26195.56515541  .00000575  00000+0  65039-4 0  9997
2 59449  45.6072 136.0718 0002762 227.8379 132.2268 14.99288755123938
HAWK-9B                 
1 59450U 24066J   26195.52214982  .00000635  00000+0  70044-4 0  9999
2 59450  45.6118 136.8763 0002688 181.8302 178.2570 14.99208993123933
HAWK-10A                
1 60540U 24149CA  26195.78347752  .00000233  00000+0  25495-4 0  9997
2 60540  97.6891 271.2208 0003144   5.1322 354.9932 14.96592150104118
HAWK-10B                
1 60545U 24149CF  26195.78334035  .00000204  00000+0  22895-4 0  9991
2 60545  97.6810 270.5479 0005508  16.0054 344.1341 14.96591022104117
HAWK-10C                
1 60575U 24149DM  26195.78367630  .00000190  00000+0  21722-4 0  9993
2 60575  97.6727 269.8587 0002707 351.4234   8.6941 14.96589697104115
HAWK-11B                
1 62379U 24247C   26195.19145366  .00004455  00000+0  15755-3 0  9997
2 62379  45.0145 141.6836 0003088  15.2264 344.8713 15.30658570 87146
HAWK-11C                
1 62381U 24247E   26195.25626166  .00004389  00000+0  15537-3 0  9993
2 62381  45.0033 140.6601 0004039   4.0919 355.9998 15.30655843 87153
HAWK-11A                
1 62382U 24247F   26195.19108715  .00004107  00000+0  14606-3 0  9996
2 62382  44.9924 140.3472 0003547   3.5650 356.5259 15.30650686 87149
HAWK-12C                
1 64621U 25138A   26195.98603180  .00002164  00000+0  10821-3 0  9993
2 64621  97.4348 197.9612 0015260  52.1188 308.1424 15.18405053 58085
HAWK-12B                
1 64622U 25138B   26195.92030516  .00002175  00000+0  10883-3 0  9995
2 64622  97.4470 198.5898 0014183  48.1612 312.0831 15.18404168 58076
