{"fetched_at":"2026-07-15T06:36:05.527Z","source":"https://celestrak.org/NORAD/elements/gp.php?NAME=HAWK&FORMAT=JSON","constellation":"hawkeye-360","records":[{"OBJECT_NAME":"HAWK-7B","OBJECT_ID":"2023-054R","EPOCH":"2026-07-14T18:07:09.237792","CLASSIFICATION_TYPE":"U","MEAN_MOTION":15.27627982,"ECCENTRICITY":0.00013614,"INCLINATION":97.2692,"RA_OF_ASC_NODE":80.6653,"ARG_OF_PERICENTER":18.0785,"MEAN_ANOMALY":342.0503,"EPHEMERIS_TYPE":0,"NORAD_CAT_ID":56193,"ELEMENT_SET_NO":999,"REV_AT_EPOCH":18123,"BSTAR":0.00011882883,"MEAN_MOTION_DOT":0.00003137,"MEAN_MOTION_DDOT":0},{"OBJECT_NAME":"HAWK-7C","OBJECT_ID":"2023-054Y","EPOCH":"2026-07-14T16:32:39.174720","CLASSIFICATION_TYPE":"U","MEAN_MOTION":15.27630255,"ECCENTRICITY":0.00009823,"INCLINATION":97.2667,"RA_OF_ASC_NODE":81.3617,"ARG_OF_PERICENTER":357.5569,"MEAN_ANOMALY":2.5666,"EPHEMERIS_TYPE":0,"NORAD_CAT_ID":56200,"ELEMENT_SET_NO":999,"REV_AT_EPOCH":18122,"BSTAR":0.00011500136,"MEAN_MOTION_DOT":0.00003034,"MEAN_MOTION_DDOT":0},{"OBJECT_NAME":"HAWK-8A","OBJECT_ID":"2024-066B","EPOCH":"2026-07-13T23:10:21.599328","CLASSIFICATION_TYPE":"U","MEAN_MOTION":14.99284113,"ECCENTRICITY":0.00029115,"INCLINATION":45.5951,"RA_OF_ASC_NODE":138.1753,"ARG_OF_PERICENTER":214.4768,"MEAN_ANOMALY":145.5925,"EPHEMERIS_TYPE":0,"NORAD_CAT_ID":59443,"ELEMENT_SET_NO":999,"REV_AT_EPOCH":12385,"BSTAR":0.000065389042,"MEAN_MOTION_DOT":0.00000579,"MEAN_MOTION_DDOT":0},{"OBJECT_NAME":"HAWK-8B","OBJECT_ID":"2024-066D","EPOCH":"2026-07-13T21:35:05.404704","CLASSIFICATION_TYPE":"U","MEAN_MOTION":14.99279756,"ECCENTRICITY":0.00030452,"INCLINATION":45.6177,"RA_OF_ASC_NODE":140.495,"ARG_OF_PERICENTER":217.9498,"MEAN_ANOMALY":142.117,"EPHEMERIS_TYPE":0,"NORAD_CAT_ID":59445,"ELEMENT_SET_NO":999,"REV_AT_EPOCH":12383,"BSTAR":0.000043097792,"MEAN_MOTION_DOT":0.00000303,"MEAN_MOTION_DDOT":0},{"OBJECT_NAME":"HAWK-9A","OBJECT_ID":"2024-066E","EPOCH":"2026-07-14T04:31:41.418912","CLASSIFICATION_TYPE":"U","MEAN_MOTION":14.99213697,"ECCENTRICITY":0.0002694,"INCLINATION":45.6093,"RA_OF_ASC_NODE":137.6636,"ARG_OF_PERICENTER":201.6392,"MEAN_ANOMALY":158.4376,"EPHEMERIS_TYPE":0,"NORAD_CAT_ID":59446,"ELEMENT_SET_NO":999,"REV_AT_EPOCH":12388,"BSTAR":0.000074271706,"MEAN_MOTION_DOT":0.00000687,"MEAN_MOTION_DDOT":0},{"OBJECT_NAME":"HAWK-9C","OBJECT_ID":"2024-066G","EPOCH":"2026-07-14T12:31:50.883744","CLASSIFICATION_TYPE":"U","MEAN_MOTION":14.99213514,"ECCENTRICITY":0.00026443,"INCLINATION":45.6064,"RA_OF_ASC_NODE":135.0375,"ARG_OF_PERICENTER":187.871,"MEAN_ANOMALY":172.213,"EPHEMERIS_TYPE":0,"NORAD_CAT_ID":59448,"ELEMENT_SET_NO":999,"REV_AT_EPOCH":12393,"BSTAR":0.000077805126,"MEAN_MOTION_DOT":0.00000731,"MEAN_MOTION_DDOT":0},{"OBJECT_NAME":"HAWK-8C","OBJECT_ID":"2024-066H","EPOCH":"2026-07-14T13:33:49.427424","CLASSIFICATION_TYPE":"U","MEAN_MOTION":14.99288755,"ECCENTRICITY":0.0002762,"INCLINATION":45.6072,"RA_OF_ASC_NODE":136.0718,"ARG_OF_PERICENTER":227.8379,"MEAN_ANOMALY":132.2268,"EPHEMERIS_TYPE":0,"NORAD_CAT_ID":59449,"ELEMENT_SET_NO":999,"REV_AT_EPOCH":12393,"BSTAR":0.000065039,"MEAN_MOTION_DOT":0.00000575,"MEAN_MOTION_DDOT":0},{"OBJECT_NAME":"HAWK-9B","OBJECT_ID":"2024-066J","EPOCH":"2026-07-14T12:31:53.744448","CLASSIFICATION_TYPE":"U","MEAN_MOTION":14.99208993,"ECCENTRICITY":0.00026887,"INCLINATION":45.6118,"RA_OF_ASC_NODE":136.8763,"ARG_OF_PERICENTER":181.8302,"MEAN_ANOMALY":178.257,"EPHEMERIS_TYPE":0,"NORAD_CAT_ID":59450,"ELEMENT_SET_NO":999,"REV_AT_EPOCH":12393,"BSTAR":0.000070044495,"MEAN_MOTION_DOT":0.00000635,"MEAN_MOTION_DDOT":0},{"OBJECT_NAME":"HAWK-10A","OBJECT_ID":"2024-149CA","EPOCH":"2026-07-14T18:48:12.457728","CLASSIFICATION_TYPE":"U","MEAN_MOTION":14.9659215,"ECCENTRICITY":0.00031442,"INCLINATION":97.6891,"RA_OF_ASC_NODE":271.2208,"ARG_OF_PERICENTER":5.1322,"MEAN_ANOMALY":354.9932,"EPHEMERIS_TYPE":0,"NORAD_CAT_ID":60540,"ELEMENT_SET_NO":999,"REV_AT_EPOCH":10411,"BSTAR":0.000025494959,"MEAN_MOTION_DOT":0.00000233,"MEAN_MOTION_DDOT":0},{"OBJECT_NAME":"HAWK-10B","OBJECT_ID":"2024-149CF","EPOCH":"2026-07-14T18:48:00.606240","CLASSIFICATION_TYPE":"U","MEAN_MOTION":14.96591022,"ECCENTRICITY":0.0005508,"INCLINATION":97.681,"RA_OF_ASC_NODE":270.5479,"ARG_OF_PERICENTER":16.0054,"MEAN_ANOMALY":344.1341,"EPHEMERIS_TYPE":0,"NORAD_CAT_ID":60545,"ELEMENT_SET_NO":999,"REV_AT_EPOCH":10411,"BSTAR":0.000022895288,"MEAN_MOTION_DOT":0.00000204,"MEAN_MOTION_DDOT":0},{"OBJECT_NAME":"HAWK-10C","OBJECT_ID":"2024-149DM","EPOCH":"2026-07-14T18:48:29.632320","CLASSIFICATION_TYPE":"U","MEAN_MOTION":14.96589697,"ECCENTRICITY":0.00027074,"INCLINATION":97.6727,"RA_OF_ASC_NODE":269.8587,"ARG_OF_PERICENTER":351.4234,"MEAN_ANOMALY":8.6941,"EPHEMERIS_TYPE":0,"NORAD_CAT_ID":60575,"ELEMENT_SET_NO":999,"REV_AT_EPOCH":10411,"BSTAR":0.000021722445,"MEAN_MOTION_DOT":0.0000019,"MEAN_MOTION_DDOT":0},{"OBJECT_NAME":"HAWK-11B","OBJECT_ID":"2024-247C","EPOCH":"2026-07-14T04:35:41.596224","CLASSIFICATION_TYPE":"U","MEAN_MOTION":15.3065857,"ECCENTRICITY":0.00030889,"INCLINATION":45.0145,"RA_OF_ASC_NODE":141.6836,"ARG_OF_PERICENTER":15.2264,"MEAN_ANOMALY":344.8713,"EPHEMERIS_TYPE":0,"NORAD_CAT_ID":62379,"ELEMENT_SET_NO":999,"REV_AT_EPOCH":8714,"BSTAR":0.00015754903,"MEAN_MOTION_DOT":0.00004455,"MEAN_MOTION_DDOT":0},{"OBJECT_NAME":"HAWK-11C","OBJECT_ID":"2024-247E","EPOCH":"2026-07-14T06:09:01.007424","CLASSIFICATION_TYPE":"U","MEAN_MOTION":15.30655843,"ECCENTRICITY":0.00040398,"INCLINATION":45.0033,"RA_OF_ASC_NODE":140.6601,"ARG_OF_PERICENTER":4.0919,"MEAN_ANOMALY":355.9998,"EPHEMERIS_TYPE":0,"NORAD_CAT_ID":62381,"ELEMENT_SET_NO":999,"REV_AT_EPOCH":8715,"BSTAR":0.00015536839,"MEAN_MOTION_DOT":0.00004389,"MEAN_MOTION_DDOT":0},{"OBJECT_NAME":"HAWK-11A","OBJECT_ID":"2024-247F","EPOCH":"2026-07-14T04:35:09.929760","CLASSIFICATION_TYPE":"U","MEAN_MOTION":15.30650686,"ECCENTRICITY":0.00035478,"INCLINATION":44.9924,"RA_OF_ASC_NODE":140.3472,"ARG_OF_PERICENTER":3.565,"MEAN_ANOMALY":356.5259,"EPHEMERIS_TYPE":0,"NORAD_CAT_ID":62382,"ELEMENT_SET_NO":999,"REV_AT_EPOCH":8714,"BSTAR":0.00014605618,"MEAN_MOTION_DOT":0.00004107,"MEAN_MOTION_DDOT":0},{"OBJECT_NAME":"HAWK-12C","OBJECT_ID":"2025-138A","EPOCH":"2026-07-14T23:39:53.147520","CLASSIFICATION_TYPE":"U","MEAN_MOTION":15.18405053,"ECCENTRICITY":0.00152602,"INCLINATION":97.4348,"RA_OF_ASC_NODE":197.9612,"ARG_OF_PERICENTER":52.1188,"MEAN_ANOMALY":308.1424,"EPHEMERIS_TYPE":0,"NORAD_CAT_ID":64621,"ELEMENT_SET_NO":999,"REV_AT_EPOCH":5808,"BSTAR":0.00010821329,"MEAN_MOTION_DOT":0.00002164,"MEAN_MOTION_DDOT":0},{"OBJECT_NAME":"HAWK-12B","OBJECT_ID":"2025-138B","EPOCH":"2026-07-14T22:05:14.365824","CLASSIFICATION_TYPE":"U","MEAN_MOTION":15.18404168,"ECCENTRICITY":0.00141839,"INCLINATION":97.447,"RA_OF_ASC_NODE":198.5898,"ARG_OF_PERICENTER":48.1612,"MEAN_ANOMALY":312.0831,"EPHEMERIS_TYPE":0,"NORAD_CAT_ID":64622,"ELEMENT_SET_NO":999,"REV_AT_EPOCH":5807,"BSTAR":0.00010883336,"MEAN_MOTION_DOT":0.00002175,"MEAN_MOTION_DDOT":0}]}
